[{"OBJECT_NAME":"CUTE-1 (CO-55)","OBJECT_ID":"2003-031E","EPOCH":"2026-03-06T11:20:45.431520","MEAN_MOTION":14.24263129,"ECCENTRICITY":0.0010574,"INCLINATION":98.678,"RA_OF_ASC_NODE":75.3114,"ARG_OF_PERICENTER":120.8066,"MEAN_ANOMALY":239.4155,"EPHEMERIS_TYPE":0,"CLASSIFICATION_TYPE":"U","NORAD_CAT_ID":27844,"ELEMENT_SET_NO":999,"REV_AT_EPOCH":17705,"BSTAR":0.00022533316,"MEAN_MOTION_DOT":4.76e-6,"MEAN_MOTION_DDOT":0},{"OBJECT_NAME":"CUBESAT XI-IV (CO-57)","OBJECT_ID":"2003-031J","EPOCH":"2026-03-06T11:31:37.549344","MEAN_MOTION":14.23558642,"ECCENTRICITY":0.00102519,"INCLINATION":98.6809,"RA_OF_ASC_NODE":75.114,"ARG_OF_PERICENTER":137.2488,"MEAN_ANOMALY":222.9489,"EPHEMERIS_TYPE":0,"CLASSIFICATION_TYPE":"U","NORAD_CAT_ID":27848,"ELEMENT_SET_NO":999,"REV_AT_EPOCH":17676,"BSTAR":0.00018932522,"MEAN_MOTION_DOT":3.87e-6,"MEAN_MOTION_DDOT":0},{"OBJECT_NAME":"CUBESAT XI-V","OBJECT_ID":"2005-043F","EPOCH":"2026-03-06T09:15:30.084768","MEAN_MOTION":14.72302296,"ECCENTRICITY":0.00145559,"INCLINATION":98.2825,"RA_OF_ASC_NODE":218.9473,"ARG_OF_PERICENTER":167.7954,"MEAN_ANOMALY":192.3608,"EPHEMERIS_TYPE":0,"CLASSIFICATION_TYPE":"U","NORAD_CAT_ID":28895,"ELEMENT_SET_NO":999,"REV_AT_EPOCH":8662,"BSTAR":0.00045496352,"MEAN_MOTION_DOT":2.828e-5,"MEAN_MOTION_DDOT":0},{"OBJECT_NAME":"CUTE-1.7+APD II (CO-65)","OBJECT_ID":"2008-021C","EPOCH":"2026-03-06T20:39:47.163456","MEAN_MOTION":15.08325396,"ECCENTRICITY":0.0010038,"INCLINATION":97.8209,"RA_OF_ASC_NODE":45.2818,"ARG_OF_PERICENTER":28.8695,"MEAN_ANOMALY":331.3086,"EPHEMERIS_TYPE":0,"CLASSIFICATION_TYPE":"U","NORAD_CAT_ID":32785,"ELEMENT_SET_NO":999,"REV_AT_EPOCH":96976,"BSTAR":0.00060286,"MEAN_MOTION_DOT":9.307e-5,"MEAN_MOTION_DDOT":0},{"OBJECT_NAME":"CANX-2","OBJECT_ID":"2008-021H","EPOCH":"2026-03-06T09:10:30.513504","MEAN_MOTION":15.04752779,"ECCENTRICITY":0.00119065,"INCLINATION":97.8566,"RA_OF_ASC_NODE":43.2786,"ARG_OF_PERICENTER":40.472,"MEAN_ANOMALY":319.7389,"EPHEMERIS_TYPE":0,"CLASSIFICATION_TYPE":"U","NORAD_CAT_ID":32790,"ELEMENT_SET_NO":999,"REV_AT_EPOCH":96934,"BSTAR":0.00041260781,"MEAN_MOTION_DOT":5.762e-5,"MEAN_MOTION_DDOT":0},{"OBJECT_NAME":"SEEDS II (CO-66)","OBJECT_ID":"2008-021J","EPOCH":"2026-03-06T10:51:42.359904","MEAN_MOTION":15.28908488,"ECCENTRICITY":0.00019698,"INCLINATION":97.752,"RA_OF_ASC_NODE":58.7481,"ARG_OF_PERICENTER":9.7725,"MEAN_ANOMALY":350.3551,"EPHEMERIS_TYPE":0,"CLASSIFICATION_TYPE":"U","NORAD_CAT_ID":32791,"ELEMENT_SET_NO":999,"REV_AT_EPOCH":97157,"BSTAR":0.00085099035,"MEAN_MOTION_DOT":0.00023871,"MEAN_MOTION_DDOT":0},{"OBJECT_NAME":"SWISSCUBE","OBJECT_ID":"2009-051B","EPOCH":"2026-03-06T04:37:51.918528","MEAN_MOTION":14.622483,"ECCENTRICITY":0.00068415,"INCLINATION":98.4101,"RA_OF_ASC_NODE":331.2738,"ARG_OF_PERICENTER":163.0927,"MEAN_ANOMALY":197.0503,"EPHEMERIS_TYPE":0,"CLASSIFICATION_TYPE":"U","NORAD_CAT_ID":35932,"ELEMENT_SET_NO":999,"REV_AT_EPOCH":87410,"BSTAR":0.00035868977,"MEAN_MOTION_DOT":1.759e-5,"MEAN_MOTION_DDOT":0},{"OBJECT_NAME":"BEESAT-1","OBJECT_ID":"2009-051C","EPOCH":"2026-03-06T06:53:07.257984","MEAN_MOTION":14.61523938,"ECCENTRICITY":0.00050778,"INCLINATION":98.4031,"RA_OF_ASC_NODE":331.2163,"ARG_OF_PERICENTER":173.8074,"MEAN_ANOMALY":186.319,"EPHEMERIS_TYPE":0,"CLASSIFICATION_TYPE":"U","NORAD_CAT_ID":35933,"ELEMENT_SET_NO":999,"REV_AT_EPOCH":87415,"BSTAR":0.00030751292,"MEAN_MOTION_DOT":1.477e-5,"MEAN_MOTION_DDOT":0},{"OBJECT_NAME":"ITUPSAT1","OBJECT_ID":"2009-051E","EPOCH":"2026-03-06T06:09:38.639808","MEAN_MOTION":14.60259585,"ECCENTRICITY":0.00070299,"INCLINATION":98.4119,"RA_OF_ASC_NODE":330.4839,"ARG_OF_PERICENTER":189.0317,"MEAN_ANOMALY":171.0757,"EPHEMERIS_TYPE":0,"CLASSIFICATION_TYPE":"U","NORAD_CAT_ID":35935,"ELEMENT_SET_NO":999,"REV_AT_EPOCH":87371,"BSTAR":0.00029045006,"MEAN_MOTION_DOT":1.353e-5,"MEAN_MOTION_DDOT":0},{"OBJECT_NAME":"TISAT 1","OBJECT_ID":"2010-035E","EPOCH":"2026-03-06T06:50:39.643584","MEAN_MOTION":15.27425128,"ECCENTRICITY":7.852e-5,"INCLINATION":98.0648,"RA_OF_ASC_NODE":3.099,"ARG_OF_PERICENTER":167.2342,"MEAN_ANOMALY":192.8915,"EPHEMERIS_TYPE":0,"CLASSIFICATION_TYPE":"U","NORAD_CAT_ID":36799,"ELEMENT_SET_NO":999,"REV_AT_EPOCH":85197,"BSTAR":0.00092801254,"MEAN_MOTION_DOT":0.00024887,"MEAN_MOTION_DDOT":0},{"OBJECT_NAME":"AEROCUBE 4.5A","OBJECT_ID":"2012-048K","EPOCH":"2026-03-06T07:54:44.051328","MEAN_MOTION":15.61278615,"ECCENTRICITY":0.00413791,"INCLINATION":64.6387,"RA_OF_ASC_NODE":31.7521,"ARG_OF_PERICENTER":212.9875,"MEAN_ANOMALY":146.8688,"EPHEMERIS_TYPE":0,"CLASSIFICATION_TYPE":"U","NORAD_CAT_ID":38767,"ELEMENT_SET_NO":999,"REV_AT_EPOCH":35646,"BSTAR":0.0010297844,"MEAN_MOTION_DOT":0.0009254,"MEAN_MOTION_DDOT":0},{"OBJECT_NAME":"STRAND-1","OBJECT_ID":"2013-009E","EPOCH":"2026-03-06T10:20:58.297056","MEAN_MOTION":14.37091567,"ECCENTRICITY":0.00088268,"INCLINATION":98.3884,"RA_OF_ASC_NODE":248.204,"ARG_OF_PERICENTER":171.2086,"MEAN_ANOMALY":188.9258,"EPHEMERIS_TYPE":0,"CLASSIFICATION_TYPE":"U","NORAD_CAT_ID":39090,"ELEMENT_SET_NO":999,"REV_AT_EPOCH":68230,"BSTAR":0.00018842958,"MEAN_MOTION_DOT":5.17e-6,"MEAN_MOTION_DDOT":0},{"OBJECT_NAME":"BRITE-AUSTRIA","OBJECT_ID":"2013-009F","EPOCH":"2026-03-06T09:36:41.756256","MEAN_MOTION":14.36493935,"ECCENTRICITY":0.00101749,"INCLINATION":98.3951,"RA_OF_ASC_NODE":247.3903,"ARG_OF_PERICENTER":180.8096,"MEAN_ANOMALY":179.3076,"EPHEMERIS_TYPE":0,"CLASSIFICATION_TYPE":"U","NORAD_CAT_ID":39091,"ELEMENT_SET_NO":999,"REV_AT_EPOCH":68229,"BSTAR":0.00013069995,"MEAN_MOTION_DOT":3.41e-6,"MEAN_MOTION_DDOT":0},{"OBJECT_NAME":"NEE-01 PEGASO","OBJECT_ID":"2013-018B","EPOCH":"2026-03-06T19:38:35.490912","MEAN_MOTION":14.93068557,"ECCENTRICITY":0.0013666,"INCLINATION":98.105,"RA_OF_ASC_NODE":206.7228,"ARG_OF_PERICENTER":137.9559,"MEAN_ANOMALY":222.2711,"EPHEMERIS_TYPE":0,"CLASSIFICATION_TYPE":"U","NORAD_CAT_ID":39151,"ELEMENT_SET_NO":999,"REV_AT_EPOCH":69542,"BSTAR":0.00047891,"MEAN_MOTION_DOT":4.936e-5,"MEAN_MOTION_DDOT":0},{"OBJECT_NAME":"POPACS 2","OBJECT_ID":"2013-055E","EPOCH":"2026-03-06T06:44:38.385312","MEAN_MOTION":14.87594228,"ECCENTRICITY":0.04313266,"INCLINATION":80.9888,"RA_OF_ASC_NODE":261.7153,"ARG_OF_PERICENTER":163.7266,"MEAN_ANOMALY":197.8321,"EPHEMERIS_TYPE":0,"CLASSIFICATION_TYPE":"U","NORAD_CAT_ID":39269,"ELEMENT_SET_NO":999,"REV_AT_EPOCH":64789,"BSTAR":0.00053249409,"MEAN_MOTION_DOT":0.00030503,"MEAN_MOTION_DDOT":0},{"OBJECT_NAME":"POPACS 3","OBJECT_ID":"2013-055F","EPOCH":"2026-03-05T18:10:56.548416","MEAN_MOTION":14.5382125,"ECCENTRICITY":0.05610028,"INCLINATION":81.0058,"RA_OF_ASC_NODE":341.1671,"ARG_OF_PERICENTER":24.6518,"MEAN_ANOMALY":338.0405,"EPHEMERIS_TYPE":0,"CLASSIFICATION_TYPE":"U","NORAD_CAT_ID":39270,"ELEMENT_SET_NO":999,"REV_AT_EPOCH":62351,"BSTAR":0.00043816116,"MEAN_MOTION_DOT":0.0001819,"MEAN_MOTION_DDOT":0}]
